{
  "type": "FeatureCollection",
  "features": [
    {
      "type": "Feature",
      "properties": {
        "norad_id": 31367,
        "name": "FENGYUN 1C DEB",
        "group": "fengyun-1c-debris",
        "lat": 28.562451823855813,
        "lon": -119.6639584084276,
        "alt_km": 668.1310169814569,
        "timestamp": "2025-12-16T17:51:11.213834+00:00",
        "meta_object_name": "FENGYUN 1C DEB",
        "meta_object_id": "1999-025BRX",
        "meta_epoch": "2025-12-14T22:52:27.154848",
        "meta_mean_motion": 14.47499987,
        "meta_eccentricity": 0.00993257,
        "meta_inclination": 98.7457,
        "meta_ra_of_asc_node": 243.2923,
        "meta_arg_of_pericenter": 9.7825,
        "meta_mean_anomaly": 52.3497,
        "meta_ephemeris_type": 0,
        "meta_classification_type": "U",
        "meta_norad_cat_id": 31367,
        "meta_element_set_no": 999,
        "meta_rev_at_epoch": 98498,
        "meta_bstar": 0.00048124038,
        "meta_mean_motion_dot": 1.83e-05,
        "meta_mean_motion_ddot": 0,
        "tle_line1": "1 31367U 99025BRX 25348.95309207  .00001830  00000+0  48124-3 0  9995",
        "tle_line2": "2 31367  98.7457 243.2923 0099325   9.7825  52.3497 14.47499987984986"
      },
      "geometry": {
        "type": "Point",
        "coordinates": [
          -119.6639584084276,
          28.562451823855813
        ]
      }
    },
    {
      "type": "Feature",
      "properties": {
        "norad_id": 31369,
        "name": "FENGYUN 1C DEB",
        "group": "fengyun-1c-debris",
        "lat": 34.21613013422412,
        "lon": -34.00800197471538,
        "alt_km": 836.1501251091177,
        "timestamp": "2025-12-16T17:51:11.213845+00:00",
        "meta_object_name": "FENGYUN 1C DEB",
        "meta_object_id": "1999-025BRZ",
        "meta_epoch": "2025-12-13T17:46:59.452032",
        "meta_mean_motion": 14.19412375,
        "meta_eccentricity": 0.005436,
        "meta_inclination": 98.6192,
        "meta_ra_of_asc_node": 328.9902,
        "meta_arg_of_pericenter": 296.6832,
        "meta_mean_anomaly": 241.5666,
        "meta_ephemeris_type": 0,
        "meta_classification_type": "U",
        "meta_norad_cat_id": 31369,
        "meta_element_set_no": 999,
        "meta_rev_at_epoch": 64341,
        "meta_bstar": 0.00041020724,
        "meta_mean_motion_dot": 8.32e-06,
        "meta_mean_motion_ddot": 0,
        "tle_line1": "1 31369U 99025BRZ 25347.74096588  .00000832  00000+0  41021-3 0  9998",
        "tle_line2": "2 31369  98.6192 328.9902 0054360 296.6832 241.5666 14.19412375643411"
      },
      "geometry": {
        "type": "Point",
        "coordinates": [
          -34.00800197471538,
          34.21613013422412
        ]
      }
    },
    {
      "type": "Feature",
      "properties": {
        "norad_id": 31370,
        "name": "FENGYUN 1C DEB",
        "group": "fengyun-1c-debris",
        "lat": 28.726555980798715,
        "lon": -14.200008059991209,
        "alt_km": 864.2589555892437,
        "timestamp": "2025-12-16T17:51:11.213857+00:00",
        "meta_object_name": "FENGYUN 1C DEB",
        "meta_object_id": "1999-025BSA",
        "meta_epoch": "2025-12-14T11:12:21.611520",
        "meta_mean_motion": 14.09709611,
        "meta_eccentricity": 0.00332743,
        "meta_inclination": 98.7542,
        "meta_ra_of_asc_node": 348.4304,
        "meta_arg_of_pericenter": 292.7284,
        "meta_mean_anomaly": 67.0371,
        "meta_ephemeris_type": 0,
        "meta_classification_type": "U",
        "meta_norad_cat_id": 31370,
        "meta_element_set_no": 999,
        "meta_rev_at_epoch": 96318,
        "meta_bstar": 0.00042202718,
        "meta_mean_motion_dot": 7.01e-06,
        "meta_mean_motion_ddot": 0,
        "tle_line1": "1 31370U 99025BSA 25348.46691680  .00000701  00000+0  42203-3 0  9992",
        "tle_line2": "2 31370  98.7542 348.4304 0033274 292.7284  67.0371 14.09709611963189"
      },
      "geometry": {
        "type": "Point",
        "coordinates": [
          -14.200008059991209,
          28.726555980798715
        ]
      }
    },
    {
      "type": "Feature",
      "properties": {
        "norad_id": 31371,
        "name": "FENGYUN 1C DEB",
        "group": "fengyun-1c-debris",
        "lat": -35.70303795020969,
        "lon": -162.76937278559097,
        "alt_km": 831.0543152100436,
        "timestamp": "2025-12-16T17:51:11.213867+00:00",
        "meta_object_name": "FENGYUN 1C DEB",
        "meta_object_id": "1999-025BSB",
        "meta_epoch": "2025-12-15T08:20:15.532800",
        "meta_mean_motion": 14.0451448,
        "meta_eccentricity": 0.0077845,
        "meta_inclination": 98.7662,
        "meta_ra_of_asc_node": 22.2489,
        "meta_arg_of_pericenter": 239.3138,
        "meta_mean_anomaly": 120.0342,
        "meta_ephemeris_type": 0,
        "meta_classification_type": "U",
        "meta_norad_cat_id": 31371,
        "meta_element_set_no": 999,
        "meta_rev_at_epoch": 95783,
        "meta_bstar": 0.00068940103,
        "meta_mean_motion_dot": 1.087e-05,
        "meta_mean_motion_ddot": 0,
        "tle_line1": "1 31371U 99025BSB 25349.34740200  .00001087  00000+0  68940-3 0  9998",
        "tle_line2": "2 31371  98.7662  22.2489 0077845 239.3138 120.0342 14.04514480957837"
      },
      "geometry": {
        "type": "Point",
        "coordinates": [
          -162.76937278559097,
          -35.70303795020969
        ]
      }
    },
    {
      "type": "Feature",
      "properties": {
        "norad_id": 31372,
        "name": "FENGYUN 1C DEB",
        "group": "fengyun-1c-debris",
        "lat": -79.60509604479611,
        "lon": 46.29033962008889,
        "alt_km": 831.4169431855089,
        "timestamp": "2025-12-16T17:51:11.213877+00:00",
        "meta_object_name": "FENGYUN 1C DEB",
        "meta_object_id": "1999-025BSC",
        "meta_epoch": "2025-12-15T22:03:16.354656",
        "meta_mean_motion": 14.26562101,
        "meta_eccentricity": 0.00338949,
        "meta_inclination": 99.374,
        "meta_ra_of_asc_node": 341.1848,
        "meta_arg_of_pericenter": 66.0499,
        "meta_mean_anomaly": 294.4222,
        "meta_ephemeris_type": 0,
        "meta_classification_type": "U",
        "meta_norad_cat_id": 31372,
        "meta_element_set_no": 999,
        "meta_rev_at_epoch": 95896,
        "meta_bstar": 0.001209619,
        "meta_mean_motion_dot": 2.887e-05,
        "meta_mean_motion_ddot": 0,
        "tle_line1": "1 31372U 99025BSC 25349.91893929  .00002887  00000+0  12096-2 0  9998",
        "tle_line2": "2 31372  99.3740 341.1848 0033894  66.0499 294.4222 14.26562101958960"
      },
      "geometry": {
        "type": "Point",
        "coordinates": [
          46.29033962008889,
          -79.60509604479611
        ]
      }
    },
    {
      "type": "Feature",
      "properties": {
        "norad_id": 31376,
        "name": "FENGYUN 1C DEB",
        "group": "fengyun-1c-debris",
        "lat": -35.78140476616022,
        "lon": -86.33622405912543,
        "alt_km": 680.2711285370997,
        "timestamp": "2025-12-16T17:51:11.213896+00:00",
        "meta_object_name": "FENGYUN 1C DEB",
        "meta_object_id": "1999-025BSG",
        "meta_epoch": "2025-12-15T17:22:36.174720",
        "meta_mean_motion": 14.61773863,
        "meta_eccentricity": 0.00489553,
        "meta_inclination": 98.8338,
        "meta_ra_of_asc_node": 266.1393,
        "meta_arg_of_pericenter": 259.5124,
        "meta_mean_anomaly": 100.0557,
        "meta_ephemeris_type": 0,
        "meta_classification_type": "U",
        "meta_norad_cat_id": 31376,
        "meta_element_set_no": 999,
        "meta_rev_at_epoch": 98186,
        "meta_bstar": 0.0013460312,
        "meta_mean_motion_dot": 6.78e-05,
        "meta_mean_motion_ddot": 0,
        "tle_line1": "1 31376U 99025BSG 25349.72402980  .00006780  00000+0  13460-2 0  9996",
        "tle_line2": "2 31376  98.8338 266.1393 0048955 259.5124 100.0557 14.61773863981866"
      },
      "geometry": {
        "type": "Point",
        "coordinates": [
          -86.33622405912543,
          -35.78140476616022
        ]
      }
    },
    {
      "type": "Feature",
      "properties": {
        "norad_id": 31378,
        "name": "FENGYUN 1C DEB",
        "group": "fengyun-1c-debris",
        "lat": -31.520396950534693,
        "lon": 53.51710660377456,
        "alt_km": 856.3237103926167,
        "timestamp": "2025-12-16T17:51:11.213906+00:00",
        "meta_object_name": "FENGYUN 1C DEB",
        "meta_object_id": "1999-025BSJ",
        "meta_epoch": "2025-12-11T21:59:42.993312",
        "meta_mean_motion": 13.80074441,
        "meta_eccentricity": 0.0168447,
        "meta_inclination": 100.7553,
        "meta_ra_of_asc_node": 234.7301,
        "meta_arg_of_pericenter": 199.9707,
        "meta_mean_anomaly": 159.4794,
        "meta_ephemeris_type": 0,
        "meta_classification_type": "U",
        "meta_norad_cat_id": 31378,
        "meta_element_set_no": 999,
        "meta_rev_at_epoch": 94212,
        "meta_bstar": 0.0009758,
        "meta_mean_motion_dot": 1.073e-05,
        "meta_mean_motion_ddot": 0,
        "tle_line1": "1 31378U 99025BSJ 25345.91646983  .00001073  00000+0  97580-3 0  9994",
        "tle_line2": "2 31378 100.7553 234.7301 0168447 199.9707 159.4794 13.80074441942126"
      },
      "geometry": {
        "type": "Point",
        "coordinates": [
          53.51710660377456,
          -31.520396950534693
        ]
      }
    }
  ]
}